[{"OBJECT_NAME":"STARLINK-32369","OBJECT_ID":"2024-154Q","EPOCH":"2026-03-09T20:35:58.333056","MEAN_MOTION":15.30196957,"ECCENTRICITY":9.435e-5,"INCLINATION":53.1609,"RA_OF_ASC_NODE":282.8579,"ARG_OF_PERICENTER":114.3494,"MEAN_ANOMALY":245.7606,"EPHEMERIS_TYPE":0,"CLASSIFICATION_TYPE":"U","NORAD_CAT_ID":60917,"ELEMENT_SET_NO":999,"REV_AT_EPOCH":8636,"BSTAR":5.3727902e-5,"MEAN_MOTION_DOT":1.232e-5,"MEAN_MOTION_DDOT":0},{"OBJECT_NAME":"OBJECT H","OBJECT_ID":"2022-023H","EPOCH":"2026-03-09T22:57:41.313888","MEAN_MOTION":15.21889274,"ECCENTRICITY":0.00933376,"INCLINATION":63.6345,"RA_OF_ASC_NODE":356.5929,"ARG_OF_PERICENTER":305.1945,"MEAN_ANOMALY":54.0457,"EPHEMERIS_TYPE":0,"CLASSIFICATION_TYPE":"U","NORAD_CAT_ID":51953,"ELEMENT_SET_NO":999,"REV_AT_EPOCH":22114,"BSTAR":0.00043867493,"MEAN_MOTION_DOT":0.00011084,"MEAN_MOTION_DDOT":0}]
